{
  "norad_id": 66930,
  "name": "STARLINK-36206",
  "history": [
    {
      "epoch": "2026-03-28T21:30:34.087968",
      "apogee_km": 475.96033574823105,
      "perigee_km": 474.3950386736724,
      "latitude_deg": 46.776783164860234,
      "longitude_deg": -120.96212447993457,
      "semi_major_axis_km": 6853.314687210951,
      "eccentricity": 0.0001142,
      "inclination_deg": 53.1577,
      "raan_deg": 269.5019,
      "arg_perigee_deg": 61.7313,
      "mean_anomaly_deg": 298.3803,
      "mean_motion_rev_day": 15.3021252
    }
  ]
}